[{"OBJECT_NAME":"STARLINK-30128","OBJECT_ID":"2023-079K","EPOCH":"2026-03-09T22:00:01.999584","MEAN_MOTION":15.1645424,"ECCENTRICITY":0.00012166,"INCLINATION":42.9995,"RA_OF_ASC_NODE":79.6064,"ARG_OF_PERICENTER":264.9817,"MEAN_ANOMALY":319.4479,"EPHEMERIS_TYPE":0,"CLASSIFICATION_TYPE":"U","NORAD_CAT_ID":56832,"ELEMENT_SET_NO":999,"REV_AT_EPOCH":572,"BSTAR":0.060668261,"MEAN_MOTION_DOT":0.0130306,"MEAN_MOTION_DDOT":0},{"OBJECT_NAME":"KUIPER-00134","OBJECT_ID":"2025-228P","EPOCH":"2026-03-09T23:25:39.467136","MEAN_MOTION":15.38627825,"ECCENTRICITY":0.00043719,"INCLINATION":51.8757,"RA_OF_ASC_NODE":318.9949,"ARG_OF_PERICENTER":326.8594,"MEAN_ANOMALY":33.2119,"EPHEMERIS_TYPE":0,"CLASSIFICATION_TYPE":"U","NORAD_CAT_ID":65960,"ELEMENT_SET_NO":999,"REV_AT_EPOCH":2383,"BSTAR":0.00094701326,"MEAN_MOTION_DOT":0.00036491,"MEAN_MOTION_DDOT":0}]
